NORAD_CAT_ID,OBJECT_NAME,OBJECT_TYPE,EPOCH,MEAN_MOTION,ECCENTRICITY,INCLINATION,RA_OF_ASC_NODE,ARG_OF_PERICENTER,MEAN_ANOMALY,BSTAR,MEAN_MOTION_DOT,MEAN_MOTION_DDOT,TLE_LINE0,TLE_LINE1,TLE_LINE2,SEMIMAJOR_AXIS,PERIOD,APOGEE,PERIGEE,DECAYED
50200.0,STARLINK-3235,PAYLOAD,2023-09-12 11:23:58,15.08839963,0.0001148,53.2176,0.758,84.7787,275.3336,5.4131e-05,5.74e-06,0.0,0 STARLINK-3235,1 50200U 21125AW  23255.47498187  .00000574  00000-0  54131-4 0  9997,2 50200  53.2176   0.7580 0001148  84.7787 275.3336 15.08839963 98994,6917.881,95.438,540.54,538.951,0.0
50200.0,STARLINK-3235,PAYLOAD,2023-09-12 12:59:21,15.08841376,0.0001431,53.2169,0.4617,96.806,263.3095,0.00010655,1.408e-05,0.0,0 STARLINK-3235,1 50200U 21125AW  23255.54122244  .00001408  00000-0  10655-3 0  9992,2 50200  53.2169   0.4617 0001431  96.8060 263.3095 15.08841376 99493,6917.876,95.437,540.731,538.751,0.0
50200.0,STARLINK-3235,PAYLOAD,2023-09-12 14:34:44,15.08845568,0.0001319,53.2181,0.1617,80.3723,279.7418,0.00014537,2.027e-05,0.0,0 STARLINK-3235,1 50200U 21125AW  23255.60745982  .00002027  00000-0  14537-3 0  9990,2 50200  53.2181   0.1617 0001319  80.3723 279.7418 15.08845568 99502,6917.863,95.437,540.641,538.816,0.0
50200.0,STARLINK-3235,PAYLOAD,2023-09-13 06:28:35,15.08850624,0.0001326,53.2175,357.1891,96.3856,263.7287,0.00025068,3.705e-05,0.0,0 STARLINK-3235,1 50200U 21125AW  23256.26985586  .00003705  00000-0  25068-3 0  9994,2 50200  53.2175 357.1891 0001326  96.3856 263.7287 15.08850624 99119,6917.848,95.437,540.63,538.796,0.0
50200.0,STARLINK-3235,PAYLOAD,2023-09-13 12:50:07,15.08860021,0.0001344,53.2173,356.0003,89.2019,270.9127,0.00039716,6.042e-05,0.0,0 STARLINK-3235,1 50200U 21125AW  23256.53481095  .00006042  00000-0  39716-3 0  9992,2 50200  53.2173 356.0003 0001344  89.2019 270.9127 15.08860021 99645,6917.819,95.436,540.614,538.754,0.0
50200.0,STARLINK-3235,PAYLOAD,2023-09-13 14:25:30,15.0886526,0.0001335,53.2174,355.7007,80.321,279.7933,0.00045388,6.948e-05,0.0,0 STARLINK-3235,1 50200U 21125AW  23256.60104695  .00006948  00000-0  45388-3 0  9995,2 50200  53.2174 355.7007 0001335  80.3210 279.7933 15.08865260 99160,6917.803,95.436,540.592,538.745,0.0
50200.0,STARLINK-3235,PAYLOAD,2023-09-14 01:33:13,15.08840435,0.0001706,53.2168,353.6218,71.9782,288.1396,2.0007e-05,3e-07,0.0,0 STARLINK-3235,1 50200U 21125AW  23257.06473797  .00000030  00000-0  20007-4 0  9996,2 50200  53.2168 353.6218 0001706  71.9782 288.1396 15.08840435 99238,6917.879,95.438,540.924,538.564,0.0
50200.0,STARLINK-3235,PAYLOAD,2023-09-14 12:40:56,15.08821275,0.0001545,53.2174,351.5397,71.0569,289.059,-0.00028773,-4.862e-05,0.0,0 STARLINK-3235,1 50200U 21125AW  23257.52842794 -.00004862  00000-0 -28773-3 0  9990,2 50200  53.2174 351.5397 0001545  71.0569 289.0590 15.08821275 99793,6917.938,95.439,540.871,538.734,0.0
50200.0,STARLINK-3235,PAYLOAD,2023-09-14 15:51:42,15.08822173,0.0001556,53.2176,350.9447,70.3414,289.7746,-0.00020938,-3.617e-05,0.0,0 STARLINK-3235,1 50200U 21125AW  23257.66090945 -.00003617  00000-0 -20938-3 0  9990,2 50200  53.2176 350.9447 0001556  70.3414 289.7746 15.08822173 99324,6917.935,95.439,540.876,538.723,0.0
50200.0,STARLINK-3235,PAYLOAD,2023-09-14 23:48:38,15.08830635,0.000145,53.2177,349.4576,70.2551,289.8598,0.00034179,5.154e-05,0.0,0 STARLINK-3235,1 50200U 21125AW  23257.99210978  .00005154  00000-0  34179-3 0  9994,2 50200  53.2177 349.4576 0001450  70.2551 289.8598 15.08830635 99378,6917.909,95.438,540.777,538.771,0.0
50200.0,STARLINK-3235,PAYLOAD,2023-09-15 10:56:20,15.08859083,0.0001481,53.2174,347.3751,67.077,293.0378,0.0015888,0.00025101,0.0,0 STARLINK-3235,1 50200U 21125AW  23258.45578925  .00025101  00000-0  15888-2 0  9994,2 50200  53.2174 347.3751 0001481  67.0770 293.0378 15.08859083 99447,6917.822,95.436,540.712,538.663,0.0
50200.0,STARLINK-3235,PAYLOAD,2023-09-15 12:31:43,15.08862126,0.0001532,53.2176,347.0781,65.4708,294.6443,0.0014839,0.00023421,0.0,0 STARLINK-3235,1 50200U 21125AW  23258.52202816  .00023421  00000-0  14839-2 0  9993,2 50200  53.2176 347.0781 0001532  65.4708 294.6443 15.08862126 99946,6917.813,95.436,540.738,538.618,0.0
50200.0,STARLINK-3235,PAYLOAD,2023-09-16 09:11:43,15.08861625,0.0001405,53.2176,343.2121,85.056,275.0593,0.0015454,0.00024407,0.0,0 STARLINK-3235,1 50200U 21125AW  23259.38314611  .00024407  00000-0  15454-2 0  9994,2 50200  53.2176 343.2121 0001405  85.0560 275.0593 15.08861625 99587,6917.814,95.436,540.651,538.707,0.0
50200.0,STARLINK-3235,PAYLOAD,2023-09-16 12:22:30,15.0885019,0.0001413,53.2177,342.6172,73.7405,286.3742,0.00092947,0.0001454,0.0,0 STARLINK-3235,1 50200U 21125AW  23259.51562635  .00014540  00000-0  92947-3 0  9990,2 50200  53.2177 342.6172 0001413  73.7405 286.3742 15.08850190100093,6917.849,95.437,540.692,538.737,0.0
50200.0,STARLINK-3235,PAYLOAD,2023-09-17 10:37:53,15.08851193,0.000156,53.2181,338.4548,80.4479,279.6689,0.00030198,4.523e-05,0.0,0 STARLINK-3235,1 50200U 21125AW  23260.44298497  .00004523  00000-0  30198-3 0  9996,2 50200  53.2181 338.4548 0001560  80.4479 279.6689 15.08851193 99745,6917.846,95.437,540.79,538.632,0.0
50200.0,STARLINK-3235,PAYLOAD,2023-09-17 21:45:35,15.08847514,0.0001551,53.2179,336.374,86.0732,274.0437,0.00023353,3.431e-05,0.0,0 STARLINK-3235,1 50200U 21125AW  23260.90666452  .00003431  00000-0  23353-3 0  9999,2 50200  53.2179 336.3740 0001551  86.0732 274.0437 15.08847514 99817,6917.857,95.437,540.795,538.649,0.0
50200.0,STARLINK-3235,PAYLOAD,2023-09-18 10:28:40,15.08843486,0.0001624,53.2185,333.9957,94.0596,266.0582,0.00013479,1.858e-05,0.0,0 STARLINK-3235,1 50200U 21125AW  23261.43658483  .00001858  00000-0  13479-3 0  9992,2 50200  53.2185 333.9957 0001624  94.0596 266.0582 15.08843486100386,6917.87,95.437,540.858,538.611,0.0
50200.0,STARLINK-3235,PAYLOAD,2023-09-18 16:50:12,15.08853554,0.0001557,53.2169,332.8036,93.2736,266.8434,0.00022959,3.369e-05,0.0,0 STARLINK-3235,1 50200U 21125AW  23261.70153799  .00003369  00000-0  22959-3 0  9994,2 50200  53.2169 332.8036 0001557  93.2736 266.8434 15.08853554100422,6917.839,95.437,540.781,538.627,0.0
50200.0,STARLINK-3235,PAYLOAD,2023-09-18 21:36:22,15.08834456,8.21e-05,53.2181,331.9137,111.5912,248.5168,-0.00012274,-2.24e-05,0.0,0 STARLINK-3235,1 50200U 21125AW  23261.90026288 -.00002240  00000-0 -12274-3 0  9996,2 50200  53.2181 331.9137 0000821 111.5912 248.5168 15.08834456 99968,6917.897,95.438,540.33,539.194,0.0
50200.0,STARLINK-3235,PAYLOAD,2023-09-19 10:19:27,15.08853651,0.0001676,53.2178,329.5349,96.7647,263.3536,0.00028141,4.195e-05,0.0,0 STARLINK-3235,1 50200U 21125AW  23262.43017822  .00004195  00000-0  28141-3 0  9998,2 50200  53.2178 329.5349 0001676  96.7647 263.3536 15.08853651100044,6917.839,95.437,540.863,538.544,0.0
50200.0,STARLINK-3235,PAYLOAD,2023-09-19 15:05:36,15.08876123,0.0001331,53.2162,328.6419,99.2318,260.8825,0.0012957,0.00020414,0.0,0 STARLINK-3235,1 50200U 21125AW  23262.62889227  .00020414  00000-0  12957-2 0  9994,2 50200  53.2162 328.6419 0001331  99.2318 260.8825 15.08876123100071,6917.77,95.435,540.556,538.714,0.0
50200.0,STARLINK-3235,PAYLOAD,2023-09-20 03:48:42,15.08848701,0.0003091,53.2157,326.2624,105.3263,254.8071,0.001049,0.00016451,0.0,0 STARLINK-3235,1 50200U 21125AW  23263.15882282  .00016451  00000-0  10490-2 0  9993,2 50200  53.2157 326.2624 0003091 105.3263 254.8071 15.08848701100156,6917.854,95.437,541.857,537.58,0.0
50200.0,STARLINK-3235,PAYLOAD,2023-09-20 11:45:38,15.08817608,0.0001276,53.2159,324.7745,82.2585,277.8552,0.00059526,9.193e-05,0.0,0 STARLINK-3235,1 50200U 21125AW  23263.49003084  .00009193  00000-0  59526-3 0  9994,2 50200  53.2159 324.7745 0001276  82.2585 277.8552 15.08817608100205,6917.949,95.439,540.697,538.931,0.0
50200.0,STARLINK-3235,PAYLOAD,2023-09-20 13:21:01,15.08823315,0.0001263,53.2162,324.4772,84.2849,275.8287,0.0001141,1.528e-05,0.0,0 STARLINK-3235,1 50200U 21125AW  23263.55627086  .00001528  00000-0  11410-3 0  9999,2 50200  53.2162 324.4772 0001263  84.2849 275.8287 15.08823315100707,6917.931,95.439,540.67,538.923,0.0
50200.0,STARLINK-3235,PAYLOAD,2023-09-21 11:36:26,15.08845063,0.0001426,53.2161,320.3154,72.4587,287.6561,0.00099295,0.00015552,0.0,0 STARLINK-3235,1 50200U 21125AW  23264.48363825  .00015552  00000-0  99295-3 0  9999,2 50200  53.2161 320.3154 0001426  72.4587 287.6561 15.08845063100849,6917.865,95.437,540.716,538.743,0.0
50200.0,STARLINK-3235,PAYLOAD,2023-09-22 03:30:17,15.08851464,0.0001625,53.2162,317.3426,68.8903,291.2263,0.00063638,9.858e-05,0.0,0 STARLINK-3235,1 50200U 21125AW  23265.14603725  .00009858  00000-0  63638-3 0  9993,2 50200  53.2162 317.3426 0001625  68.8903 291.2263 15.08851464100459,6917.845,95.437,540.834,538.586,0.0
50200.0,STARLINK-3235,PAYLOAD,2023-09-22 09:51:49,15.08855867,0.0001621,53.2162,316.1527,69.2619,290.8547,0.00067056,0.00010405,0.0,0 STARLINK-3235,1 50200U 21125AW  23265.41099532  .00010405  00000-0  67056-3 0  9996,2 50200  53.2162 316.1527 0001621  69.2619 290.8547 15.08855867100982,6917.832,95.437,540.818,538.576,0.0
50200.0,STARLINK-3235,PAYLOAD,2023-09-22 14:37:59,15.08864999,0.0001622,53.2161,315.2601,70.0204,290.0963,0.00090066,0.00014085,0.0,0 STARLINK-3235,1 50200U 21125AW  23265.60971201  .00014085  00000-0  90066-3 0  9994,2 50200  53.2161 315.2601 0001622  70.0204 290.0963 15.08864999101010,6917.804,95.436,540.791,538.547,0.0
50200.0,STARLINK-3235,PAYLOAD,2023-09-23 09:42:36,15.08850329,0.0001817,53.2164,311.693,66.5764,293.5419,0.00025506,3.775e-05,0.0,0 STARLINK-3235,1 50200U 21125AW  23266.40459257  .00003775  00000-0  25506-3 0  9996,2 50200  53.2164 311.6930 0001817  66.5764 293.5419 15.08850329100649,6917.849,95.437,540.971,538.457,0.0
50200.0,STARLINK-3235,PAYLOAD,2023-09-23 22:25:41,15.08847812,0.0001909,53.2158,309.3154,65.2887,294.8304,0.00022469,3.29e-05,0.0,0 STARLINK-3235,1 50200U 21125AW  23266.93451231  .00003290  00000-0  22469-3 0  9995,2 50200  53.2158 309.3154 0001909  65.2887 294.8304 15.08847812100727,6917.857,95.437,541.042,538.401,0.0
